[{"OBJECT_NAME":"STARLINK-6113","OBJECT_ID":"2023-046W","EPOCH":"2026-03-09T22:26:20.343552","MEAN_MOTION":15.02535048,"ECCENTRICITY":0.00014204,"INCLINATION":43.0033,"RA_OF_ASC_NODE":157.2072,"ARG_OF_PERICENTER":260.7518,"MEAN_ANOMALY":99.3164,"EPHEMERIS_TYPE":0,"CLASSIFICATION_TYPE":"U","NORAD_CAT_ID":56113,"ELEMENT_SET_NO":999,"REV_AT_EPOCH":16210,"BSTAR":7.014319e-6,"MEAN_MOTION_DOT":-1.09e-6,"MEAN_MOTION_DDOT":0},{"OBJECT_NAME":"COSMOS 2251 DEB","OBJECT_ID":"1993-036APY","EPOCH":"2026-02-27T18:53:11.975424","MEAN_MOTION":14.91799606,"ECCENTRICITY":0.00652266,"INCLINATION":74.0385,"RA_OF_ASC_NODE":248.3743,"ARG_OF_PERICENTER":297.547,"MEAN_ANOMALY":61.9095,"EPHEMERIS_TYPE":0,"CLASSIFICATION_TYPE":"U","NORAD_CAT_ID":35703,"ELEMENT_SET_NO":999,"REV_AT_EPOCH":67764,"BSTAR":0.00062223908,"MEAN_MOTION_DOT":6.504e-5,"MEAN_MOTION_DDOT":0}]
